NORAD_CAT_ID,OBJECT_NAME,OBJECT_TYPE,EPOCH,MEAN_MOTION,ECCENTRICITY,INCLINATION,RA_OF_ASC_NODE,ARG_OF_PERICENTER,MEAN_ANOMALY,BSTAR,MEAN_MOTION_DOT,MEAN_MOTION_DDOT,TLE_LINE0,TLE_LINE1,TLE_LINE2,SEMIMAJOR_AXIS,PERIOD,APOGEE,PERIGEE,DECAYED
52262.0,STARLINK-3761,PAYLOAD,2024-03-17 11:54:50,15.08842724,0.0001432,53.2166,111.1207,93.5772,266.5384,0.00012475,1.698e-05,0.0,0 STARLINK-3761,1 52262U 22041B   24077.49641846  .00001698  00000-0  12475-3 0  9994,2 52262  53.2166 111.1207 0001432  93.5772 266.5384 15.08842724106550,6917.872,95.437,540.728,538.746,0.0
52262.0,STARLINK-3761,PAYLOAD,2024-03-18 02:13:19,15.08837676,0.0001475,53.2166,108.4435,98.8268,261.2891,8.5277e-05,1.069e-05,0.0,0 STARLINK-3761,1 52262U 22041B   24078.09258315  .00001069  00000-0  85277-4 0  9999,2 52262  53.2166 108.4435 0001475  98.8268 261.2891 15.08837676106642,6917.887,95.438,540.773,538.732,0.0
52262.0,STARLINK-3761,PAYLOAD,2024-03-18 08:34:51,15.08836291,0.0001442,53.2165,107.254,99.7706,260.3449,5.8606e-05,6.45e-06,0.0,0 STARLINK-3761,1 52262U 22041B   24078.35754443  .00000645  00000-0  58606-4 0  9996,2 52262  53.2165 107.2540 0001442  99.7706 260.3449 15.08836291105466,6917.892,95.438,540.754,538.759,0.0
52262.0,STARLINK-3761,PAYLOAD,2024-03-19 08:25:38,15.08843893,0.0001466,53.2162,102.7946,103.0339,257.0817,8.1217e-05,1.005e-05,0.0,0 STARLINK-3761,1 52262U 22041B   24079.35114043  .00001005  00000-0  81217-4 0  9998,2 52262  53.2162 102.7946 0001466 103.0339 257.0817 15.08843893106830,6917.868,95.437,540.748,538.719,0.0
52262.0,STARLINK-3761,PAYLOAD,2024-03-20 01:54:54,15.08829303,0.0001531,53.2171,99.528,93.5552,266.5616,4.8109e-05,4.78e-06,0.0,0 STARLINK-3761,1 52262U 22041B   24080.07979362  .00000478  00000-0  48109-4 0  9998,2 52262  53.2171  99.5280 0001531  93.5552 266.5616 15.08829303106941,6917.913,95.438,540.837,538.719,0.0
52262.0,STARLINK-3761,PAYLOAD,2024-03-20 06:41:03,15.0882995,0.0001518,53.2172,98.6355,96.9932,263.1233,4.5611e-05,4.38e-06,0.0,0 STARLINK-3761,1 52262U 22041B   24080.27851448  .00000438  00000-0  45611-4 0  9995,2 52262  53.2172  98.6355 0001518  96.9932 263.1233 15.08829950105753,6917.911,95.438,540.826,538.726,0.0
52262.0,STARLINK-3761,PAYLOAD,2024-03-21 04:56:26,15.08846838,0.0001481,53.2174,94.4677,101.7474,258.3685,8.1447e-05,1.009e-05,0.0,0 STARLINK-3761,1 52262U 22041B   24081.20586511  .00001009  00000-0  81447-4 0  9997,2 52262  53.2174  94.4677 0001481 101.7474 258.3685 15.08846838107114,6917.859,95.437,540.749,538.7,0.0
52262.0,STARLINK-3761,PAYLOAD,2024-03-21 08:07:13,15.08846078,0.0001537,53.2175,93.8783,100.0251,260.0915,0.00012201,1.655e-05,0.0,0 STARLINK-3761,1 52262U 22041B   24081.33834494  .00001655  00000-0  12201-3 0  9995,2 52262  53.2175  93.8783 0001537 100.0251 260.0915 15.08846078105911,6917.862,95.437,540.79,538.664,0.0
52262.0,STARLINK-3761,PAYLOAD,2024-03-21 17:39:31,15.08849981,0.0001379,53.217,92.0918,93.9373,266.1777,0.00024589,3.629e-05,0.0,0 STARLINK-3761,1 52262U 22041B   24081.73577988  .00003629  00000-0  24589-3 0  9996,2 52262  53.2170  92.0918 0001379  93.9373 266.1777 15.08849981105971,6917.85,95.437,540.669,538.761,0.0
52262.0,STARLINK-3761,PAYLOAD,2024-03-22 04:47:14,15.08840193,0.000184,53.217,90.0118,95.9023,264.2178,9.5395e-05,1.23e-05,0.0,0 STARLINK-3761,1 52262U 22041B   24082.19946799  .00001230  00000-0  95395-4 0  9997,2 52262  53.2170  90.0118 0001840  95.9023 264.2178 15.08840193107262,6917.88,95.438,541.018,538.472,0.0
52262.0,STARLINK-3761,PAYLOAD,2024-03-22 09:33:23,15.08845517,0.0001421,53.2152,89.1178,91.0842,269.0312,0.00015378,2.161e-05,0.0,0 STARLINK-3761,1 52262U 22041B   24082.39818437  .00002161  00000-0  15378-3 0  9992,2 52262  53.2152  89.1178 0001421  91.0842 269.0312 15.08845517106074,6917.864,95.437,540.712,538.745,0.0
52262.0,STARLINK-3761,PAYLOAD,2024-03-23 09:24:10,15.08836216,0.0001409,53.2159,84.6565,89.0622,271.0532,-9.5384e-05,-1.805e-05,0.0,0 STARLINK-3761,1 52262U 22041B   24083.39178955 -.00001805  00000-0 -95384-4 0  9999,2 52262  53.2159  84.6565 0001409  89.0622 271.0532 15.08836216107445,6917.892,95.438,540.732,538.782,0.0
52262.0,STARLINK-3761,PAYLOAD,2024-03-23 17:21:06,15.08845439,0.0001267,53.2169,83.169,91.6767,268.437,-1.8008e-05,-5.75e-06,0.0,0 STARLINK-3761,1 52262U 22041B   24083.72298705 -.00000575  00000-0 -18008-4 0  9993,2 52262  53.2169  83.1690 0001267  91.6767 268.4370 15.08845439106277,6917.864,95.437,540.605,538.852,0.0
52262.0,STARLINK-3761,PAYLOAD,2024-03-24 04:28:47,15.08843711,0.0001401,53.2176,81.0877,96.295,263.8201,0.00011896,1.606e-05,0.0,0 STARLINK-3761,1 52262U 22041B   24084.18666557  .00001606  00000-0  11896-3 0  9999,2 52262  53.2176  81.0877 0001401  96.2950 263.8201 15.08843711107560,6917.869,95.437,540.703,538.765,0.0
52262.0,STARLINK-3761,PAYLOAD,2024-03-24 09:14:56,15.08851947,0.0001607,53.2164,80.1917,104.4873,255.6298,0.00022983,3.373e-05,0.0,0 STARLINK-3761,1 52262U 22041B   24084.38538129  .00003373  00000-0  22983-3 0  9996,2 52262  53.2164  80.1917 0001607 104.4873 255.6298 15.08851947106379,6917.844,95.437,540.821,538.597,0.0
52262.0,STARLINK-3761,PAYLOAD,2024-03-24 17:11:52,15.08860538,0.000161,53.2167,78.7045,105.5063,254.6107,0.0003863,5.869e-05,0.0,0 STARLINK-3761,1 52262U 22041B   24084.71657637  .00005869  00000-0  38630-3 0  9997,2 52262  53.2167  78.7045 0001610 105.5063 254.6107 15.08860538107649,6917.818,95.436,540.796,538.569,0.0
52262.0,STARLINK-3761,PAYLOAD,2024-03-25 05:54:58,15.08830746,0.0001364,53.216,76.3278,98.7246,261.3901,-4.2472e-05,-9.64e-06,0.0,0 STARLINK-3761,1 52262U 22041B   24085.24651096 -.00000964  00000-0 -42472-4 0  9992,2 52262  53.2160  76.3278 0001364  98.7246 261.3901 15.08830746107720,6917.909,95.438,540.717,538.83,0.0
52262.0,STARLINK-3761,PAYLOAD,2024-03-25 09:05:44,15.08833932,0.0001454,53.2159,75.733,97.6723,262.4435,2.4522e-05,1.02e-06,0.0,0 STARLINK-3761,1 52262U 22041B   24085.37899089  .00000102  00000-0  24522-4 0  9990,2 52262  53.2159  75.7330 0001454  97.6723 262.4435 15.08833932106529,6917.899,95.438,540.77,538.758,0.0
52262.0,STARLINK-3761,PAYLOAD,2024-03-26 05:45:45,15.08841393,0.0001484,53.2172,71.8656,98.9544,261.1617,0.00033188,4.998e-05,0.0,0 STARLINK-3761,1 52262U 22041B   24086.24011383  .00004998  00000-0  33188-3 0  9994,2 52262  53.2172  71.8656 0001484  98.9544 261.1617 15.08841393107877,6917.876,95.437,540.768,538.715,0.0
52262.0,STARLINK-3761,PAYLOAD,2024-03-26 23:15:00,15.08838086,0.0001443,53.2176,68.5942,99.1345,260.981,0.0003585,5.422e-05,0.0,0 STARLINK-3761,1 52262U 22041B   24086.96875852  .00005422  00000-0  35850-3 0  9993,2 52262  53.2176  68.5942 0001443  99.1345 260.9810 15.08838086106763,6917.886,95.438,540.749,538.753,0.0
52262.0,STARLINK-3761,PAYLOAD,2024-03-27 05:36:33,15.0884108,0.0001269,53.217,67.411,95.7792,264.3345,0.00032873,4.948e-05,0.0,0 STARLINK-3761,1 52262U 22041B   24087.23371833  .00004948  00000-0  32873-3 0  9998,2 52262  53.2170  67.4110 0001269  95.7792 264.3345 15.08841080108026,6917.877,95.437,540.62,538.864,0.0
52262.0,STARLINK-3761,PAYLOAD,2024-03-27 15:08:51,15.08851202,0.0001333,53.2177,65.6272,100.2887,259.8256,0.00042516,6.487e-05,0.0,0 STARLINK-3761,1 52262U 22041B   24087.63115393  .00006487  00000-0  42516-3 0  9994,2 52262  53.2177  65.6272 0001333 100.2887 259.8256 15.08851202106868,6917.846,95.437,540.633,538.789,0.0
52262.0,STARLINK-3761,PAYLOAD,2024-03-28 07:02:43,15.08845506,0.0001506,53.2176,62.6535,96.8659,263.2504,0.00017634,2.52e-05,0.0,0 STARLINK-3761,1 52262U 22041B   24088.29355547  .00002520  00000-0  17634-3 0  9991,2 52262  53.2176  62.6535 0001506  96.8659 263.2504 15.08845506108187,6917.864,95.437,540.77,538.687,0.0
52262.0,STARLINK-3761,PAYLOAD,2024-03-28 22:56:34,15.08840458,0.0001495,53.2185,59.6779,90.5935,269.5228,6.9775e-05,8.23e-06,0.0,0 STARLINK-3761,1 52262U 22041B   24088.95595816  .00000823  00000-0  69775-4 0  9997,2 52262  53.2185  59.6779 0001495  90.5935 269.5228 15.08840458107067,6917.879,95.438,540.778,538.71,0.0
52262.0,STARLINK-3761,PAYLOAD,2024-03-29 05:18:07,15.08836955,0.0001369,53.2176,58.4905,94.4572,265.6576,3.126e-05,2.1e-06,0.0,0 STARLINK-3761,1 52262U 22041B   24089.22092124  .00000210  00000-0  31260-4 0  9990,2 52262  53.2176  58.4905 0001369  94.4572 265.6576 15.08836955108325,6917.89,95.438,540.702,538.808,0.0
52262.0,STARLINK-3761,PAYLOAD,2024-03-29 21:11:58,15.08844084,0.0002012,53.2178,55.5175,89.9739,270.1484,0.00015513,2.182e-05,0.0,0 STARLINK-3761,1 52262U 22041B   24089.88331950  .00002182  00000-0  15513-3 0  9997,2 52262  53.2178  55.5175 0002012  89.9739 270.1484 15.08844084107201,6917.868,95.437,541.125,538.341,0.0
52262.0,STARLINK-3761,PAYLOAD,2024-03-30 06:44:17,15.08842348,0.0001471,53.2173,53.7315,94.0402,266.0758,0.00011356,1.52e-05,0.0,0 STARLINK-3761,1 52262U 22041B   24090.28075940  .00001520  00000-0  11356-3 0  9993,2 52262  53.2173  53.7315 0001471  94.0402 266.0758 15.08842348108484,6917.873,95.437,540.756,538.721,0.0
52262.0,STARLINK-3761,PAYLOAD,2024-03-30 14:41:12,15.08854131,0.0001395,53.2191,52.2434,82.433,277.6821,0.00020641,3e-05,0.0,0 STARLINK-3761,1 52262U 22041B   24090.61195167  .00003000  00000-0  20641-3 0  9996,2 52262  53.2191  52.2434 0001395  82.4330 277.6821 15.08854131107319,6917.837,95.437,540.667,538.737,0.0
52262.0,STARLINK-3761,PAYLOAD,2024-03-31 04:59:41,15.08843752,0.0001374,53.2175,49.5688,90.3774,269.7375,0.00018293,2.625e-05,0.0,0 STARLINK-3761,1 52262U 22041B   24091.20812059  .00002625  00000-0  18293-3 0  9990,2 52262  53.2175  49.5688 0001374  90.3774 269.7375 15.08843752108626,6917.869,95.437,540.684,538.783,0.0
52262.0,STARLINK-3761,PAYLOAD,2024-03-31 14:31:59,15.08855569,0.0001364,53.2177,47.7821,93.629,266.4858,0.00037151,5.632e-05,0.0,0 STARLINK-3761,1 52262U 22041B   24091.60555387  .00005632  00000-0  37151-3 0  9997,2 52262  53.2177  47.7821 0001364  93.6290 266.4858 15.08855569107465,6917.833,95.437,540.641,538.754,0.0
